COSMOS 2251 DEB         
1 36539U 93036BCZ 24321.78892082  .00006119  00000+0  14063-2 0  9995
2 36539  74.0253  78.8469 0030646 318.1984  41.6838 14.55365412782625
COSMOS 2251 DEB         
1 36540U 93036BDA 24320.64686682  .00009749  00000+0  23851-2 0  9995
2 36540  74.0325 204.0125 0015505   8.3885 351.7532 14.52543608803042
COSMOS 2251 DEB         
1 36550U 93036BDL 24318.32941293  .00003260  00000+0  13505-2 0  9997
2 36550  74.0465 185.1979 0080175 330.7771  28.8901 14.25249343789724
COSMOS 2251 DEB         
1 36551U 93036BDM 24316.68613273  .00038317  00000+0  43229-2 0  9996
2 36551  73.8920  99.7000 0067719 135.6782 224.9847 14.84704288805104
COSMOS 2251 DEB         
1 36557U 93036BDT 24320.34194337  .00017867  00000+0  35239-2 0  9994
2 36557  73.9836 170.7134 0028672  54.0289 306.3530 14.62193617791445
COSMOS 2251 DEB         
1 36558U 93036BDU 24318.89660837  .00005768  00000+0  14555-2 0  9990
2 36558  74.0454 177.9960 0013057   1.7365 358.3839 14.51224499795461
COSMOS 2251 DEB         
1 36614U 93036BEC 24317.96777509  .00011140  00000+0  26644-2 0  9998
2 36614  74.0263 205.1467 0016735  11.7923 348.3627 14.53569215805102
COSMOS 2251 DEB         
1 36622U 93036BEL 24320.98814935  .00009557  00000+0  14903-2 0  9992
2 36622  74.0164 190.7672 0073150  65.2573 295.6188 14.71196052609784
COSMOS 2251 DEB         
1 36625U 93036BEP 24320.80620104  .00208987  00000+0  62507-2 0  9990
2 36625  73.8536 351.9370 0017940  26.4397 333.7718 15.33481192 33359
COSMOS 2251 DEB         
1 36626U 93036BEQ 24320.20534403  .00075050  00000+0  16402-2 0  9997
2 36626  74.0065 298.7578 0062990  64.2252 296.5438 15.41698173623160
COSMOS 2251 DEB         
1 36632U 93036BEW 24320.65939546  .00005458  00000+0  17204-2 0  9996
2 36632  74.0021 300.5737 0033045 146.9963 213.3264 14.40240990595647
COSMOS 2251 DEB         
1 37084U 93036BFE 24321.04174018  .00017809  00000+0  14996-2 0  9995
2 37084  74.0314 234.9039 0109245  59.2832 301.9058 14.93600954604044
COSMOS 2251 DEB         
1 37085U 93036BFF 24319.30011083  .00029596  00000+0  21718-2 0  9990
2 37085  73.9716 322.5679 0058118 251.9321 107.5530 15.01990213611660
COSMOS 2251 DEB         
1 37089U 93036BFK 24317.83824217  .00011635  00000+0  30206-2 0  9998
2 37089  74.0420 165.0426 0157954   4.0553 356.1840 14.42539741778928
COSMOS 2251 DEB         
1 37093U 93036BFP 24314.82904255  .00101099  00000+0  57218-2 0  9996
2 37093  74.0083 213.8058 0075863 194.3970 165.5063 15.10095401794434
COSMOS 2251 DEB         
1 37094U 93036BFQ 24320.71834301  .00008187  00000+0  27772-2 0  9992
2 37094  74.1093 118.2122 0088336 188.8386 171.1217 14.34624211788771
COSMOS 2251 DEB         
1 37095U 93036BFR 24321.79622834  .00004355  00000+0  24758-2 0  9992
2 37095  73.8471 157.2207 0200307 287.0800  70.8479 14.00577797794830
COSMOS 2251 DEB         
1 37101U 93036BFX 24320.18449121  .00009329  00000+0  19876-2 0  9999
2 37101  74.0362 125.4196 0049584 310.9140  48.7735 14.58288865599352
COSMOS 2251 DEB         
1 37108U 93036BGE 24318.08633529  .00008998  00000+0  28816-2 0  9994
2 37108  74.0467  88.6922 0099786 263.1851  95.7941 14.36832573798291
COSMOS 2251 DEB         
1 37126U 93036BGY 24318.96017644  .00002685  00000+0  39250-3 0  9997
2 37126  73.9560  44.7437 0126875  14.4617 346.0129 14.70867133 23046
COSMOS 2251 DEB         
1 37132U 93036BHE 24320.17987126  .00011105  00000+0  18253-2 0  9997
2 37132  74.0053 281.7466 0045984 180.9697 179.1393 14.69971088566318
COSMOS 2251 DEB         
1 37270U 93036BHJ 24321.21270309  .00011961  00000+0  99516-2 0  9995
2 37270  73.9359 252.9324 0413092 339.7988  18.7172 13.55530415717542
COSMOS 2251 DEB         
1 37277U 93036BHR 24304.28157445  .00121945  00000+0  12148-1 0  9994
2 37277  74.0176 143.9270 0007903 241.5042 118.5345 14.90881502770139
COSMOS 2251 DEB         
1 37280U 93036BHU 24319.46867652  .00006695  00000+0  31032-2 0  9990
2 37280  74.0349  38.2150 0140801 259.0123  99.5154 14.15813162517507
COSMOS 2251 DEB         
1 37284U 93036BHY 24311.29081458  .00004538  00000+0  22871-2 0  9994
2 37284  74.0227 145.4795 0173321  28.5998 146.2116 14.09117637749393
COSMOS 2251 DEB         
1 37295U 93036BJK 24319.42484949  .00005457  00000+0  10859-2 0  9995
2 37295  74.0086 317.8506 0050191 236.0417 123.5974 14.61513269765504
COSMOS 2251 DEB         
1 37305U 93036BJV 24320.66582685  .00004698  00000+0  16733-2 0  9994
2 37305  73.8709 296.6112 0051828 331.6113  28.2215 14.33790168612420
COSMOS 2251 DEB         
1 37312U 93036BKC 24320.68702438  .00003927  00000+0  11533-2 0  9991
2 37312  74.0325 214.9041 0017034  54.6121 305.6625 14.44025960805009
COSMOS 2251 DEB         
1 37316U 93036BKG 24321.32735226  .00029822  00000+0  44813-2 0  9997
2 37316  74.0282  77.6059 0046443 260.2107  99.3819 14.73646347803788
COSMOS 2251 DEB         
1 37320U 93036BKL 24320.58656434  .00012835  00000+0  20247-2 0  9993
2 37320  74.0493 264.5827 0050263  95.5333 265.1574 14.71589513806820
COSMOS 2251 DEB         
1 37326U 93036BKS 24315.88716179  .00009703  00000+0  20452-2 0  9997
2 37326  74.0289  12.6528 0060998 242.7051 116.7894 14.58373456798848
COSMOS 2251 DEB         
1 37327U 93036BKT 24310.99786397  .00129707  00000+0  13403-1 0  9998
2 37327  74.0183  48.3968 0017292 280.8068  79.1167 14.89280934 22652
COSMOS 2251 DEB         
1 37330U 93036BKW 24320.28826898  .00003773  00000+0  81489-3 0  9991
2 37330  74.0180 323.2243 0061829 268.4707  90.9374 14.57508115806460
COSMOS 2251 DEB         
1 37331U 93036BKX 24319.57539366  .00003909  00000+0  14070-2 0  9995
2 37331  74.0771  65.8921 0057123 182.5241 177.5632 14.33140465791231
COSMOS 2251 DEB         
1 37336U 93036BLC 24317.05616958  .00000554  00000+0  21303-3 0  9995
2 37336  74.0410 333.4381 0029224 151.4203 208.8557 14.32499336594535
COSMOS 2251 DEB         
1 37340U 93036BLG 24318.17521914  .00001569  00000+0  54568-3 0  9997
2 37340  74.0245 282.6920 0016957 119.1206 241.1646 14.36205562784016
COSMOS 2251 DEB         
1 37483U 93036BLL 24321.24101905  .00001471  00000+0  42927-3 0  9999
2 37483  73.9728 153.1805 0093572  90.4418 270.7461 14.42451832596324
COSMOS 2251 DEB         
1 37484U 93036BLM 24317.51444126  .00006305  00000+0  20471-2 0  9990
2 37484  73.8205 228.6690 0041615 336.5510 196.9929 14.38575574596886
COSMOS 2251 DEB         
1 37486U 93036BLP 24319.16489860  .00005386  00000+0  24528-2 0  9994
2 37486  73.7023 102.6731 0250558  28.5387 143.8197 14.06635494769524
COSMOS 2251 DEB         
1 37487U 93036BLQ 24321.10154999  .00030462  00000+0  62100-2 0  9995
2 37487  73.9202 238.2798 0039800 167.3790 192.8382 14.60331731754879
COSMOS 2251 DEB         
1 37491U 93036BLU 24321.44379098  .00002775  00000+0  20780-2 0  9990
2 37491  73.9078 209.2109 0320865 276.1282  80.3373 13.73439121751310
COSMOS 2251 DEB         
1 37496U 93036BLZ 24302.04879879  .00064214  00000+0  93287-2 0  9990
2 37496  73.9563  58.8779 0097052 168.3708 191.9740 14.72407651599296
COSMOS 2251 DEB         
1 37499U 93036BMC 24318.73720809  .00001134  00000+0  41550-3 0  9993
2 37499  74.0370 323.1989 0026999 139.6904 220.6256 14.33780167794998
COSMOS 2251 DEB         
1 37500U 93036BMD 24321.55173190  .00044709  00000+0  68006-3 0  9995
2 37500  73.9551  24.6353 0095809 293.4432  65.6729 15.49080966836907
COSMOS 2251 DEB         
1 37515U 93036BMU 24318.30874194  .00051437  00000+0  76941-2 0  9994
2 37515  74.1402 329.0645 0062771 314.0947  45.5069 14.73083928798582
COSMOS 2251 DEB         
1 37528U 93036BNH 24318.23161303  .00003392  00000+0  90935-3 0  9998
2 37528  74.0370 142.4301 0020608  27.0859 333.1371 14.48438274802118
COSMOS 2251 DEB         
1 37530U 93036BNK 24321.32776593  .00001092  00000+0  40092-3 0  9992
2 37530  74.0362 330.0770 0025611 132.1417 240.8355 14.33733145796199
COSMOS 2251 DEB         
1 37532U 93036BNM 24319.49126618  .00001703  00000+0  53312-3 0  9994
2 37532  74.0520 223.9894 0014237  64.4258 108.9786 14.41383247792478
COSMOS 2251 DEB         
1 37533U 93036BNN 24318.33211218  .00005435  00000+0  27834-2 0  9993
2 37533  74.0638 165.6148 0164105 317.6073  41.2480 14.08989533573594
COSMOS 2251 DEB         
1 37535U 93036BNQ 24321.44658046  .00006438  00000+0  15087-2 0  9996
2 37535  74.0255  96.7553 0030709 329.8394  98.7862 14.54442667796263
COSMOS 2251 DEB         
1 37537U 93036BNS 24321.57765239  .00001227  00000+0  41921-3 0  9993
2 37537  74.0128 265.6241 0051047 141.0632 219.4215 14.36678449794140
COSMOS 2251 DEB         
1 37538U 93036BNT 24321.54268925  .00063271  00000+0  50634-2 0  9998
2 37538  74.0049 268.9534 0021280 142.5162 217.7513 14.99673132774811
COSMOS 2251 DEB         
1 37546U 93036BPB 24321.19797042  .00019076  00000+0  35386-2 0  9996
2 37546  74.0219 141.7650 0006113 283.8417  76.2071 14.65196088601219
COSMOS 2251 DEB         
1 37547U 93036BPC 24317.50820150  .00250331  00000+0  11313-1 0  9998
2 37547  74.0180 243.6188 0019265 149.3965 210.8360 15.19590195803084
COSMOS 2251 DEB         
1 37959U 93036BPJ 24321.11110986  .00008014  00000+0  18412-2 0  9993
2 37959  74.0122  81.2085 0063177 318.2960 215.3807 14.54372577746859
COSMOS 2251 DEB         
1 37960U 93036BPK 24320.26819154  .00002605  00000+0  12040-2 0  9994
2 37960  74.0604 153.7128 0254796 265.9445  91.2535 14.05715652718864
COSMOS 2251 DEB         
1 37961U 93036BPL 24320.97947775  .00007642  00000+0  18257-2 0  9996
2 37961  74.0420 159.4828 0043712 338.0030  21.9254 14.53201042743645
COSMOS 2251 DEB         
1 37966U 93036BPR 24317.65595942  .00033440  00000+0  42565-2 0  9991
2 37966  73.9862 310.7093 0021000 272.7825  87.0948 14.81258839794361
COSMOS 2251 DEB         
1 37967U 93036BPS 24320.92054259  .00007946  00000+0  24148-2 0  9996
2 37967  74.0147 140.0977 0163799  12.4891 348.0242 14.34766136591048
COSMOS 2251 DEB         
1 37968U 93036BPT 24316.84292246  .00015655  00000+0  14734-2 0  9999
2 37968  74.0074 351.8817 0098105 212.4532 147.0595 14.90233541543018
